COMMENT,ORIGINATOR,NORAD_CAT_ID,OBJECT_NAME,OBJECT_TYPE,CLASSIFICATION_TYPE,INTLDES,EPOCH,EPOCH_MICROSECONDS,MEAN_MOTION,ECCENTRICITY,INCLINATION,RA_OF_ASC_NODE,ARG_OF_PERICENTER,MEAN_ANOMALY,EPHEMERIS_TYPE,ELEMENT_SET_NO,REV_AT_EPOCH,BSTAR,MEAN_MOTION_DOT,MEAN_MOTION_DDOT,FILE,TLE_LINE0,TLE_LINE1,TLE_LINE2,OBJECT_ID,OBJECT_NUMBER,SEMIMAJOR_AXIS,PERIOD,APOGEE,PERIGEE,DECAYED
"GENERATED VIA SPACETRACK.ORG API","18 SPCS","55092","SPACEBEE-166","PAYLOAD","U","23001CM","2023-04-01 10:12:37","166688","15.17396368","0.0016063","97.4865","152.3438","268.5771","91.3622","0","999","1345","0.0011065","0.00022166","0","3877270","0 SPACEBEE-166","1 55092U 23001CM  23091.42543017  .00022166  00000-0  11065-2 0  9990","2 55092  97.4865 152.3438 0016063 268.5771  91.3622 15.17396368 13455","2023-001CM","55092","6891.850","94.899","524.785","502.645","0"
"GENERATED VIA SPACETRACK.ORG API","18 SPCS","55092","SPACEBEE-166","PAYLOAD","U","23001CM","2023-04-01 14:57:29","888640","15.17405859","0.0016065","97.4864","152.5393","267.7886","92.1508","0","999","1348","0.0010966","0.00021972","0","3877144","0 SPACEBEE-166","1 55092U 23001CM  23091.62326260  .00021972  00000-0  10966-2 0  9994","2 55092  97.4864 152.5393 0016065 267.7886  92.1508 15.17405859 13487","2023-001CM","55092","6891.821","94.899","524.758","502.615","0"
"GENERATED VIA SPACETRACK.ORG API","18 SPCS","55092","SPACEBEE-166","PAYLOAD","U","23001CM","2023-04-01 18:07:24","943584","15.1741406","0.0016055","97.4864","152.6698","267.2644","92.6751","0","999","1350","0.0012235","0.00024537","0","3877516","0 SPACEBEE-166","1 55092U 23001CM  23091.75514981  .00024537  00000-0  12235-2 0  9998","2 55092  97.4864 152.6698 0016055 267.2644  92.6751 15.17414060 13504","2023-001CM","55092","6891.796","94.898","524.726","502.597","0"
"GENERATED VIA SPACETRACK.ORG API","18 SPCS","55092","SPACEBEE-166","PAYLOAD","U","23001CM","2023-04-02 03:37:09","911424","15.17432729","0.001609","97.4862","153.061","265.9025","94.0369","0","999","1356","0.0012848","0.00025788","0","3878126","0 SPACEBEE-166","1 55092U 23001CM  23092.15080916  .00025788  00000-0  12848-2 0  9998","2 55092  97.4862 153.0610 0016090 265.9025  94.0369 15.17432729 13567","2023-001CM","55092","6891.740","94.897","524.694","502.516","0"
"GENERATED VIA SPACETRACK.ORG API","18 SPCS","55092","SPACEBEE-166","PAYLOAD","U","23001CM","2023-04-02 17:51:46","514304","15.17459924","0.0016118","97.4858","153.6474","263.5608","96.379","0","999","1365","0.0011469","0.00023023","0","3878311","0 SPACEBEE-166","1 55092U 23001CM  23092.74428836  .00023023  00000-0  11469-2 0  9998","2 55092  97.4858 153.6474 0016118 263.5608  96.3790 15.17459924 13657","2023-001CM","55092","6891.658","94.895","524.631","502.415","0"
"GENERATED VIA SPACETRACK.ORG API","18 SPCS","55092","SPACEBEE-166","PAYLOAD","U","23001CM","2023-04-02 17:51:46","514304","15.17459924","0.0016118","97.4858","153.6474","263.5608","96.379","0","999","1365","0.0011469","0.00023023","0","3878419","0 SPACEBEE-166","1 55092U 23001CM  23092.74428836  .00023023  00000-0  11469-2 0  9998","2 55092  97.4858 153.6474 0016118 263.5608  96.3790 15.17459924 13657","2023-001CM","55092","6891.658","94.895","524.631","502.415","0"
"GENERATED VIA SPACETRACK.ORG API","18 SPCS","55092","SPACEBEE-166","PAYLOAD","U","23001CM","2023-04-03 09:41:19","464000","15.17489872","0.0016212","97.4854","154.2989","261.1571","98.7826","0","999","1375","0.0011783","0.00023678","0","3879059","0 SPACEBEE-166","1 55092U 23001CM  23093.40369750  .00023678  00000-0  11783-2 0  9996","2 55092  97.4854 154.2989 0016212 261.1571  98.7826 15.17489872 13751","2023-001CM","55092","6891.567","94.894","524.604","502.259","0"
"GENERATED VIA SPACETRACK.ORG API","18 SPCS","55092","SPACEBEE-166","PAYLOAD","U","23001CM","2023-04-04 03:05:48","457248","15.17522797","0.0016267","97.4852","155.0161","258.7378","101.2028","0","999","1386","0.0011586","0.00023303","0","3879562","0 SPACEBEE-166","1 55092U 23001CM  23094.12903307  .00023303  00000-0  11586-2 0  9994","2 55092  97.4852 155.0161 0016267 258.7378 101.2028 15.17522797 13867","2023-001CM","55092","6891.467","94.891","524.543","502.122","0"
"GENERATED VIA SPACETRACK.ORG API","18 SPCS","55092","SPACEBEE-166","PAYLOAD","U","23001CM","2023-04-04 03:05:48","457248","15.17522797","0.0016267","97.4852","155.0161","258.7378","101.2028","0","999","1386","0.0011586","0.00023303","0","3879974","0 SPACEBEE-166","1 55092U 23001CM  23094.12903307  .00023303  00000-0  11586-2 0  9994","2 55092  97.4852 155.0161 0016267 258.7378 101.2028 15.17522797 13867","2023-001CM","55092","6891.467","94.891","524.543","502.122","0"
"GENERATED VIA SPACETRACK.ORG API","18 SPCS","55092","SPACEBEE-166","PAYLOAD","U","23001CM","2023-04-05 02:50:03","894432","15.17567774","0.0016315","97.4851","155.9936","255.113","104.8297","0","999","1401","0.0010978","0.00022101","0","3880853","0 SPACEBEE-166","1 55092U 23001CM  23095.11810063  .00022101  00000-0  10978-2 0  9999","2 55092  97.4851 155.9936 0016315 255.1130 104.8297 15.17567774 14015","2023-001CM","55092","6891.331","94.889","524.439","501.953","0"
"GENERATED VIA SPACETRACK.ORG API","18 SPCS","55092","SPACEBEE-166","PAYLOAD","U","23001CM","2023-04-05 17:04:35","941440","15.17594542","0.0016285","97.485","156.5801","252.6733","107.2719","0","999","1410","0.0010465","0.00021078","0","3881064","0 SPACEBEE-166","1 55092U 23001CM  23095.71152710  .00021078  00000-0  10465-2 0  9996","2 55092  97.4850 156.5801 0016285 252.6733 107.2719 15.17594542 14108","2023-001CM","55092","6891.250","94.887","524.337","501.893","0"
"GENERATED VIA SPACETRACK.ORG API","18 SPCS","55092","SPACEBEE-166","PAYLOAD","U","23001CM","2023-04-05 17:04:35","941440","15.17594542","0.0016285","97.485","156.5801","252.6733","107.2719","0","999","1410","0.0010465","0.00021078","0","3881153","0 SPACEBEE-166","1 55092U 23001CM  23095.71152710  .00021078  00000-0  10465-2 0  9996","2 55092  97.4850 156.5801 0016285 252.6733 107.2719 15.17594542 14108","2023-001CM","55092","6891.250","94.887","524.337","501.893","0"
"GENERATED VIA SPACETRACK.ORG API","18 SPCS","55092","SPACEBEE-166","PAYLOAD","U","23001CM","2023-04-06 04:09:13","564224","15.17615595","0.0016309","97.4848","157.0365","250.9802","108.9665","0","999","1417","0.0010396","0.00020952","0","3881771","0 SPACEBEE-166","1 55092U 23001CM  23096.17307366  .00020952  00000-0  10396-2 0  9999","2 55092  97.4848 157.0365 0016309 250.9802 108.9665 15.17615595 14178","2023-001CM","55092","6891.186","94.886","524.290","501.812","0"
"GENERATED VIA SPACETRACK.ORG API","18 SPCS","55092","SPACEBEE-166","PAYLOAD","U","23001CM","2023-04-06 21:33:37","444320","15.17644202","0.0016279","97.4847","157.7538","248.1648","111.7854","0","999","1428","0.00097858","0.00019731","0","3882049","0 SPACEBEE-166","1 55092U 23001CM  23096.89835005  .00019731  00000-0  97858-3 0  9996","2 55092  97.4847 157.7538 0016279 248.1648 111.7854 15.17644202 14280","2023-001CM","55092","6891.100","94.884","524.183","501.747","0"
"GENERATED VIA SPACETRACK.ORG API","18 SPCS","55092","SPACEBEE-166","PAYLOAD","U","23001CM","2023-04-07 03:53:24","14400","15.17656932","0.0016266","97.4845","158.0145","247.2515","112.7","0","999","1432","0.0010699","0.00021591","0","3882234","0 SPACEBEE-166","1 55092U 23001CM  23097.16208350  .00021591  00000-0  10699-2 0  9998","2 55092  97.4845 158.0145 0016266 247.2515 112.7000 15.17656932 14327","2023-001CM","55092","6891.061","94.883","524.135","501.717","0"
"GENERATED VIA SPACETRACK.ORG API","18 SPCS","55092","SPACEBEE-166","PAYLOAD","U","23001CM","2023-04-07 03:53:24","14400","15.17656932","0.0016266","97.4845","158.0145","247.2515","112.7","0","999","1432","0.0010699","0.00021591","0","3882626","0 SPACEBEE-166","1 55092U 23001CM  23097.16208350  .00021591  00000-0  10699-2 0  9998","2 55092  97.4845 158.0145 0016266 247.2515 112.7000 15.17656932 14327","2023-001CM","55092","6891.061","94.883","524.135","501.717","0"
"GENERATED VIA SPACETRACK.ORG API","18 SPCS","55092","SPACEBEE-166","PAYLOAD","U","23001CM","2023-04-08 03:37:32","193120","15.17693662","0.0016491","97.4847","158.9928","243.5644","116.3898","0","999","1447","0.00091349","0.00018438","0","3883527","0 SPACEBEE-166","1 55092U 23001CM  23098.15106705  .00018438  00000-0  91349-3 0  9997","2 55092  97.4847 158.9928 0016491 243.5644 116.3898 15.17693662 14471","2023-001CM","55092","6890.950","94.881","524.179","501.451","0"
"GENERATED VIA SPACETRACK.ORG API","18 SPCS","55092","SPACEBEE-166","PAYLOAD","U","23001CM","2023-04-08 16:17:03","741792","15.1771273","0.0016451","97.4839","159.5138","241.6449","118.3126","0","999","1455","0.00088585","0.00017886","0","3883690","0 SPACEBEE-166","1 55092U 23001CM  23098.67851553  .00017886  00000-0  88585-3 0  9996","2 55092  97.4839 159.5138 0016451 241.6449 118.3126 15.17712730 14553","2023-001CM","55092","6890.892","94.880","524.093","501.421","0"
"GENERATED VIA SPACETRACK.ORG API","18 SPCS","55092","SPACEBEE-166","PAYLOAD","U","23001CM","2023-04-09 09:41:23","714880","15.17738156","0.0016477","97.4833","160.2305","239.1335","120.8279","0","999","1466","0.00088229","0.00017827","0","3884332","0 SPACEBEE-166","1 55092U 23001CM  23099.40374670  .00017827  00000-0  88229-3 0  9998","2 55092  97.4833 160.2305 0016477 239.1335 120.8279 15.17738156 14665","2023-001CM","55092","6890.815","94.878","524.034","501.326","0"
"GENERATED VIA SPACETRACK.ORG API","18 SPCS","55092","SPACEBEE-166","PAYLOAD","U","23001CM","2023-04-09 17:36:05","186304","15.17749064","0.0016526","97.4832","160.5564","237.9905","121.9724","0","999","1471","0.00085232","0.00017224","0","3884518","0 SPACEBEE-166","1 55092U 23001CM  23099.73339336  .00017224  00000-0  85232-3 0  9996","2 55092  97.4832 160.5564 0016526 237.9905 121.9724 15.17749064 14711","2023-001CM","55092","6890.782","94.877","524.035","501.260","0"
